[{"OBJECT_NAME":"STARLINK-32108","OBJECT_ID":"2024-086A","EPOCH":"2026-03-09T01:25:29.848800","MEAN_MOTION":15.27573212,"ECCENTRICITY":0.00010572,"INCLINATION":43.0039,"RA_OF_ASC_NODE":67.0607,"ARG_OF_PERICENTER":271.5921,"MEAN_ANOMALY":88.4809,"EPHEMERIS_TYPE":0,"CLASSIFICATION_TYPE":"U","NORAD_CAT_ID":59682,"ELEMENT_SET_NO":999,"REV_AT_EPOCH":10396,"BSTAR":2.9013389e-5,"MEAN_MOTION_DOT":5.36e-6,"MEAN_MOTION_DDOT":0},{"OBJECT_NAME":"SIMSAT 1","OBJECT_ID":"2000-026A","EPOCH":"2026-03-09T17:22:54.646176","MEAN_MOTION":15.27666538,"ECCENTRICITY":0.00084816,"INCLINATION":86.3501,"RA_OF_ASC_NODE":180.5413,"ARG_OF_PERICENTER":14.8337,"MEAN_ANOMALY":345.3157,"EPHEMERIS_TYPE":0,"CLASSIFICATION_TYPE":"U","NORAD_CAT_ID":26365,"ELEMENT_SET_NO":999,"REV_AT_EPOCH":42720,"BSTAR":0.00013499313,"MEAN_MOTION_DOT":3.69e-5,"MEAN_MOTION_DDOT":0}]
